{
    "links": {
        "self": "http://www.neowsapp.com/rest/v1/neo/3092261?api_key=iIulBulltgU6a56xZRHN4H3l9WmuAYTsLGpBGhQ2"
    },
    "id": "3092261",
    "neo_reference_id": "3092261",
    "name": "(2000 HP40)",
    "designation": "2000 HP40",
    "nasa_jpl_url": "http://ssd.jpl.nasa.gov/sbdb.cgi?sstr=3092261",
    "absolute_magnitude_h": 24.0,
    "estimated_diameter": {
        "kilometers": {
            "estimated_diameter_min": 0.0421264611,
            "estimated_diameter_max": 0.0941976306
        },
        "meters": {
            "estimated_diameter_min": 42.1264610556,
            "estimated_diameter_max": 94.1976305719
        },
        "miles": {
            "estimated_diameter_min": 0.0261761612,
            "estimated_diameter_max": 0.0585316759
        },
        "feet": {
            "estimated_diameter_min": 138.2101784897,
            "estimated_diameter_max": 309.0473542854
        }
    },
    "is_potentially_hazardous_asteroid": false,
    "close_approach_data": [
        {
            "close_approach_date": "2000-05-01",
            "close_approach_date_full": "2000-May-01 22:40",
            "epoch_date_close_approach": 957220800000,
            "relative_velocity": {
                "kilometers_per_second": "7.6023270504",
                "kilometers_per_hour": "27368.3773813124",
                "miles_per_hour": "17005.6453789605"
            },
            "miss_distance": {
                "astronomical": "0.0797756818",
                "lunar": "31.0327402202",
                "kilometers": "11934272.075077766",
                "miles": "7415612.8009185308"
            },
            "orbiting_body": "Earth"
        },
        {
            "close_approach_date": "2003-04-29",
            "close_approach_date_full": "2003-Apr-29 01:34",
            "epoch_date_close_approach": 1051580040000,
            "relative_velocity": {
                "kilometers_per_second": "13.5547002498",
                "kilometers_per_hour": "48796.9208992717",
                "miles_per_hour": "30320.5089887725"
            },
            "miss_distance": {
                "astronomical": "0.4089598577",
                "lunar": "159.0853846453",
                "kilometers": "61179523.627423099",
                "miles": "38015193.1941488062"
            },
            "orbiting_body": "Earth"
        },
        {
            "close_approach_date": "2003-12-06",
            "close_approach_date_full": "2003-Dec-06 03:30",
            "epoch_date_close_approach": 1070681400000,
            "relative_velocity": {
                "kilometers_per_second": "7.2259561157",
                "kilometers_per_hour": "26013.4420166735",
                "miles_per_hour": "16163.7412353047"
            },
            "miss_distance": {
                "astronomical": "0.0980465802",
                "lunar": "38.1401196978",
                "kilometers": "14667559.558704174",
                "miles": "9113998.8880346412"
            },
            "orbiting_body": "Mars"
        }
    ],
    "orbital_data": {
        "orbit_id": "12",
        "orbit_determination_date": "2017-04-06 09:17:01",
        "first_observation_date": "2000-04-29",
        "last_observation_date": "2000-05-13",
        "data_arc_in_days": 14,
        "observations_used": 34,
        "orbit_uncertainty": "8",
        "minimum_orbit_intersection": ".0797585",
        "jupiter_tisserand_invariant": "4.982",
        "epoch_osculation": "2451668.5",
        "eccentricity": ".1603395773490326",
        "semi_major_axis": "1.291524402020845",
        "inclination": "14.16052296285474",
        "ascending_node_longitude": "219.078988055735",
        "orbital_period": "536.108077885736",
        "perihelion_distance": "1.084441925264861",
        "perihelion_argument": "12.63943618109484",
        "aphelion_distance": "1.49860687877683",
        "perihelion_time": "2451677.022105352023",
        "mean_anomaly": "354.2773518003544",
        "mean_motion": ".6715063899423822",
        "equinox": "J2000",
        "orbit_class": {
            "orbit_class_type": "AMO",
            "orbit_class_description": "Near-Earth asteroid orbits similar to that of 1221 Amor",
            "orbit_class_range": "1.017 AU < q (perihelion) < 1.3 AU"
        }
    },
    "is_sentry_object": false
}